{"type":"FeatureCollection","features":[{"type":"Feature","id":3,"geometry":{"type":"Polygon","coordinates":[[[12.804160352562937,63.107931130173718],[12.806702130294116,63.074221442746676],[12.809237276478575,63.04051153646013],[12.811765815807616,63.006801411388487],[12.814287772849465,62.973091067605218],[12.816803172050037,62.939380505182974],[12.81931203773369,62.905669724193665],[12.821814394103981,62.871958724708236],[12.824310265244421,62.838247506796911],[12.855634342768646,62.838728043502464],[12.886959569355454,62.839201616698389],[12.918285928290492,62.839668225902365],[12.94961340285567,62.840127870639186],[12.9809419763292,62.840580550440599],[13.012271631985646,62.841026264845517],[13.043602353095999,62.841465013399869],[13.074934122927711,62.841896795656652],[13.106266924744762,62.842321611175961],[13.137600741807709,62.842739459524921],[13.168935557373748,62.843150340277781],[13.200271354696772,62.843554253015824],[13.231608117027399,62.843951197327421],[13.262945827613068,62.844341172808043],[13.294284469698066,62.844724179060186],[13.325624026523588,62.845100215693485],[13.323702489524713,62.878821330125938],[13.321775957030594,62.912542248845455],[13.319844410476323,62.946262971867114],[13.317907831204339,62.979983499205574],[13.315966200463899,63.013703830875109],[13.31401949941046,63.047423966889546],[13.312067709105106,63.08114390726238],[13.310110810513963,63.114863652006619],[13.278481235183467,63.114483234723032],[13.246852602233437,63.114095766745123],[13.215224928927876,63.113701248474278],[13.183598232527546,63.11329968031918],[13.151972530289896,63.112891062695795],[13.120347839469023,63.112475396027335],[13.088724177315601,63.112052680744299],[13.05710156107682,63.111622917284471],[13.025480007996336,63.111186106092923],[12.993859535314208,63.110742247621943],[12.962240160266845,63.110291342331109],[12.930621900086953,63.109833390687349],[12.89900477200346,63.109368393164701],[12.867388793241465,63.108896350244571],[12.835773981022202,63.108417262415614],[12.804160352562937,63.107931130173718]]]},"properties":{"OBJECTID":3,"Shape_Length":111227.49500000104,"Shape_Area":768104433.90925956}}]}